[{"OBJECT_NAME":"STARLINK-2213","OBJECT_ID":"2021-017BL","EPOCH":"2026-03-09T15:45:02.208384","MEAN_MOTION":15.30203136,"ECCENTRICITY":0.00011135,"INCLINATION":53.1589,"RA_OF_ASC_NODE":203.9945,"ARG_OF_PERICENTER":71.0225,"MEAN_ANOMALY":289.0897,"EPHEMERIS_TYPE":0,"CLASSIFICATION_TYPE":"U","NORAD_CAT_ID":47780,"ELEMENT_SET_NO":999,"REV_AT_EPOCH":27789,"BSTAR":0.00070253511,"MEAN_MOTION_DOT":0.00020507,"MEAN_MOTION_DDOT":0},{"OBJECT_NAME":"HAWK-11C","OBJECT_ID":"2024-247E","EPOCH":"2026-03-09T12:17:35.407968","MEAN_MOTION":15.2884802,"ECCENTRICITY":0.00059001,"INCLINATION":45.0045,"RA_OF_ASC_NODE":114.8762,"ARG_OF_PERICENTER":329.704,"MEAN_ANOMALY":30.3502,"EPHEMERIS_TYPE":0,"CLASSIFICATION_TYPE":"U","NORAD_CAT_ID":62381,"ELEMENT_SET_NO":999,"REV_AT_EPOCH":6774,"BSTAR":0.00033290115,"MEAN_MOTION_DOT":9.223e-5,"MEAN_MOTION_DDOT":0}]
